start=new Date('2021-10-30T00:00:00.000Z').valueOf();
sats=[{"REV_AT_EPOCH":"9541","SEMIMAJOR_AXIS":"6925.361","ELEMENT_SET_NO":"999","CLASSIFICATION_TYPE":"U","EPOCH":"2021-10-29T10:12:21.356352","RA_OF_ASC_NODE":"314.5838","EPHEMERIS_TYPE":"0","SITE":"AFETR","TLE_LINE2":"2 45223  53.0550 314.5838 0001498  81.7607 278.3552 15.06395993 95410","ARG_OF_PERICENTER":"81.7607","MEAN_MOTION_DOT":"0.00000490","TLE_LINE1":"1 45223U 20012AX  21302.42524718  .00000490  00000-0  51813-4 0  9997","COUNTRY_CODE":"US","REF_FRAME":"TEME","CENTER_NAME":"EARTH","NORAD_CAT_ID":"45223","RCS_SIZE":"LARGE","BSTAR":"0.00005181300000","PERIOD":"95.592","DECAY_DATE":null,"ECCENTRICITY":"0.00014980","OBJECT_NAME":"STARLINK-1212","INCLINATION":"53.0550","APOAPSIS":"548.263","MEAN_MOTION_DDOT":"0.0000000000000","TIME_SYSTEM":"UTC","MEAN_ELEMENT_THEORY":"SGP4","FILE":"3191412","LAUNCH_DATE":"2020-02-17","OBJECT_ID":"2020-012AX","MEAN_ANOMALY":"278.3552","MEAN_MOTION":"15.06395993","PERIAPSIS":"546.188","GP_ID":"188433814","OBJECT_TYPE":"PAYLOAD"},{"CENTER_NAME":"EARTH","NORAD_CAT_ID":"45224","RCS_SIZE":"LARGE","REF_FRAME":"TEME","PERIOD":"91.853","DECAY_DATE":null,"BSTAR":"-0.00064281000000","RA_OF_ASC_NODE":"249.0087","REV_AT_EPOCH":"9622","SEMIMAJOR_AXIS":"6743.540","ELEMENT_SET_NO":"999","EPOCH":"2021-10-29T13:35:12.777504","CLASSIFICATION_TYPE":"U","MEAN_MOTION_DOT":"-0.00071856","ARG_OF_PERICENTER":"282.9363","TLE_LINE1":"1 45224U 20012AY  21302.56612011 -.00071856  00000-0 -64281-3 0  9995","COUNTRY_CODE":"US","EPHEMERIS_TYPE":"0","SITE":"AFETR","TLE_LINE2":"2 45224  53.0495 249.0087 0007084 282.9363  77.0862 15.67728511 96229","MEAN_MOTION":"15.67728511","GP_ID":"188434065","PERIAPSIS":"360.628","OBJECT_TYPE":"PAYLOAD","OBJECT_ID":"2020-012AY","LAUNCH_DATE":"2020-02-17","MEAN_ANOMALY":"77.0862","INCLINATION":"53.0495","APOAPSIS":"370.182","ECCENTRICITY":"0.00070840","OBJECT_NAME":"STARLINK-1214","MEAN_ELEMENT_THEORY":"SGP4","FILE":"3191412","MEAN_MOTION_DDOT":"0.0000000000000","TIME_SYSTEM":"UTC"},{"MEAN_MOTION_DOT":"0.00001459","ARG_OF_PERICENTER":"74.1900","TLE_LINE1":"1 45225U 20012AZ  21302.51002092  .00001459  00000-0  11685-3 0  9993","COUNTRY_CODE":"US","SITE":"AFETR","EPHEMERIS_TYPE":"0","TLE_LINE2":"2 45225  53.0541 314.1850 0001352  74.1900 285.9238 15.06397742 95377","RA_OF_ASC_NODE":"314.1850","EPOCH":"2021-10-29T12:14:25.807488","CLASSIFICATION_TYPE":"U","SEMIMAJOR_AXIS":"6925.355","REV_AT_EPOCH":"9537","ELEMENT_SET_NO":"999","PERIOD":"95.592","DECAY_DATE":null,"BSTAR":"0.00011685000000","NORAD_CAT_ID":"45225","CENTER_NAME":"EARTH","RCS_SIZE":"LARGE","REF_FRAME":"TEME","MEAN_ELEMENT_THEORY":"SGP4","FILE":"3191412","MEAN_MOTION_DDOT":"0.0000000000000","TIME_SYSTEM":"UTC","INCLINATION":"53.0541","APOAPSIS":"548.157","OBJECT_NAME":"STARLINK-1215","ECCENTRICITY":"0.00013520","MEAN_MOTION":"15.06397742","OBJECT_TYPE":"PAYLOAD","PERIAPSIS":"546.284","GP_ID":"188432813","MEAN_ANOMALY":"285.9238","LAUNCH_DATE":"2020-02-17","OBJECT_ID":"2020-012AZ"},{"LAUNCH_DATE":"2020-02-17","OBJECT_ID":"2020-012BA","MEAN_ANOMALY":"287.5354","OBJECT_TYPE":"PAYLOAD","PERIAPSIS":"546.420","GP_ID":"188433063","MEAN_MOTION":"15.06409930","TIME_SYSTEM":"UTC","MEAN_MOTION_DDOT":"0.0000000000000","MEAN_ELEMENT_THEORY":"SGP4","FILE":"3191412","ECCENTRICITY":"0.00011020","OBJECT_NAME":"STARLINK-1217","APOAPSIS":"547.946","INCLINATION":"53.0549","BSTAR":"0.00010270000000","DECAY_DATE":null,"PERIOD":"95.592","REF_FRAME":"TEME","RCS_SIZE":"LARGE","NORAD_CAT_ID":"45226","CENTER_NAME":"EARTH","TLE_LINE2":"2 45226  53.0549 314.1562 0001102  72.5755 287.5354 15.06409930 95335","EPHEMERIS_TYPE":"0","SITE":"AFETR","TLE_LINE1":"1 45226U 20012BA  21302.51738318  .00001249  00000-0  10270-3 0  9997","COUNTRY_CODE":"US","ARG_OF_PERICENTER":"72.5755","MEAN_MOTION_DOT":"0.00001249","EPOCH":"2021-10-29T12:25:01.906752","CLASSIFICATION_TYPE":"U","SEMIMAJOR_AXIS":"6925.318","ELEMENT_SET_NO":"999","REV_AT_EPOCH":"9533","RA_OF_ASC_NODE":"314.1562"},{"TIME_SYSTEM":"UTC","MEAN_MOTION_DDOT":"0.0000000000000","FILE":"3191412","MEAN_ELEMENT_THEORY":"SGP4","OBJECT_NAME":"STARLINK-1221","ECCENTRICITY":"0.00012610","APOAPSIS":"548.084","INCLINATION":"53.0537","LAUNCH_DATE":"2020-02-17","OBJECT_ID":"2020-012BB","MEAN_ANOMALY":"289.7988","OBJECT_TYPE":"PAYLOAD","PERIAPSIS":"546.338","GP_ID":"188434315","MEAN_MOTION":"15.06400843","TLE_LINE2":"2 45227  53.0537 314.6658 0001261  70.3137 289.7988 15.06400843 95320","EPHEMERIS_TYPE":"0","SITE":"AFETR","COUNTRY_CODE":"US","TLE_LINE1":"1 45227U 20012BB  21302.40681696  .00000873  00000-0  77503-4 0  9997","ARG_OF_PERICENTER":"70.3137","MEAN_MOTION_DOT":"0.00000873","CLASSIFICATION_TYPE":"U","EPOCH":"2021-10-29T09:45:48.985344","REV_AT_EPOCH":"9532","SEMIMAJOR_AXIS":"6925.346","ELEMENT_SET_NO":"999","RA_OF_ASC_NODE":"314.6658","BSTAR":"0.00007750300000","DECAY_DATE":null,"PERIOD":"95.592","REF_FRAME":"TEME","RCS_SIZE":"LARGE","NORAD_CAT_ID":"45227","CENTER_NAME":"EARTH"},{"EPHEMERIS_TYPE":"0","SITE":"AFETR","TLE_LINE2":"2 45228  53.0549 314.6336 0001271  84.6493 275.4641 15.06404594 95292","MEAN_MOTION_DOT":"0.00000813","ARG_OF_PERICENTER":"84.6493","COUNTRY_CODE":"US","TLE_LINE1":"1 45228U 20012BC  21302.41049988  .00000813  00000-0  73448-4 0  9999","EPOCH":"2021-10-29T09:51:07.189632","CLASSIFICATION_TYPE":"U","SEMIMAJOR_AXIS":"6925.334","ELEMENT_SET_NO":"999","REV_AT_EPOCH":"9529","RA_OF_ASC_NODE":"314.6336","BSTAR":"0.00007344800000","PERIOD":"95.592","DECAY_DATE":null,"REF_FRAME":"TEME","NORAD_CAT_ID":"45228","CENTER_NAME":"EARTH","RCS_SIZE":"LARGE","MEAN_MOTION_DDOT":"0.0000000000000","TIME_SYSTEM":"UTC","MEAN_ELEMENT_THEORY":"SGP4","FILE":"3191412","ECCENTRICITY":"0.00012710","OBJECT_NAME":"STARLINK-1222","INCLINATION":"53.0549","APOAPSIS":"548.080","OBJECT_ID":"2020-012BC","LAUNCH_DATE":"2020-02-17","MEAN_ANOMALY":"275.4641","MEAN_MOTION":"15.06404594","OBJECT_TYPE":"PAYLOAD","GP_ID":"188434566","PERIAPSIS":"546.319"},{"RA_OF_ASC_NODE":"314.7939","SEMIMAJOR_AXIS":"6925.368","ELEMENT_SET_NO":"999","REV_AT_EPOCH":"9529","CLASSIFICATION_TYPE":"U","EPOCH":"2021-10-29T08:58:02.800128","MEAN_MOTION_DOT":"0.00000255","ARG_OF_PERICENTER":"68.3235","TLE_LINE1":"1 45229U 20012BD  21302.37364352  .00000255  00000-0  35989-4 0  9998","COUNTRY_CODE":"US","EPHEMERIS_TYPE":"0","SITE":"AFETR","TLE_LINE2":"2 45229  53.0559 314.7939 0001317  68.3235 291.7894 15.06393562 95291","CENTER_NAME":"EARTH","NORAD_CAT_ID":"45229","RCS_SIZE":"LARGE","REF_FRAME":"TEME","PERIOD":"95.593","DECAY_DATE":null,"BSTAR":"0.00003598900000","INCLINATION":"53.0559","APOAPSIS":"548.145","ECCENTRICITY":"0.00013170","OBJECT_NAME":"STARLINK-1226","MEAN_ELEMENT_THEORY":"SGP4","FILE":"3191412","MEAN_MOTION_DDOT":"0.0000000000000","TIME_SYSTEM":"UTC","MEAN_MOTION":"15.06393562","PERIAPSIS":"546.321","GP_ID":"188433314","OBJECT_TYPE":"PAYLOAD","LAUNCH_DATE":"2020-02-17","MEAN_ANOMALY":"291.7894","OBJECT_ID":"2020-012BD"},{"TIME_SYSTEM":"UTC","MEAN_MOTION_DDOT":"0.0000000000000","MEAN_ELEMENT_THEORY":"SGP4","FILE":"3191412","OBJECT_NAME":"STARLINK-1227","ECCENTRICITY":"0.00012550","APOAPSIS":"548.098","INCLINATION":"53.0548","MEAN_ANOMALY":"277.2663","LAUNCH_DATE":"2020-02-17","OBJECT_ID":"2020-012BE","OBJECT_TYPE":"PAYLOAD","PERIAPSIS":"546.359","GP_ID":"188433564","MEAN_MOTION":"15.06395166","TLE_LINE2":"2 45230  53.0548 314.8183 0001255  82.8469 277.2663 15.06395166 95413","EPHEMERIS_TYPE":"0","SITE":"AFETR","COUNTRY_CODE":"US","TLE_LINE1":"1 45230U 20012BE  21302.36995809  .00000628  00000-0  61085-4 0  9996","MEAN_MOTION_DOT":"0.00000628","ARG_OF_PERICENTER":"82.8469","EPOCH":"2021-10-29T08:52:44.378976","CLASSIFICATION_TYPE":"U","REV_AT_EPOCH":"9541","SEMIMAJOR_AXIS":"6925.363","ELEMENT_SET_NO":"999","RA_OF_ASC_NODE":"314.8183","BSTAR":"0.00006108500000","DECAY_DATE":null,"PERIOD":"95.592","REF_FRAME":"TEME","RCS_SIZE":"LARGE","NORAD_CAT_ID":"45230","CENTER_NAME":"EARTH"},{"OBJECT_TYPE":"PAYLOAD","PERIAPSIS":"346.186","GP_ID":"188433815","MEAN_MOTION":"15.73217442","LAUNCH_DATE":"2020-02-17","MEAN_ANOMALY":"3.7705","OBJECT_ID":"2020-012BF","APOAPSIS":"353.235","INCLINATION":"53.0310","OBJECT_NAME":"STARLINK-1229","ECCENTRICITY":"0.00052390","FILE":"3191412","MEAN_ELEMENT_THEORY":"SGP4","TIME_SYSTEM":"UTC","MEAN_MOTION_DDOT":"0.0000000000000","RCS_SIZE":"LARGE","NORAD_CAT_ID":"45231","CENTER_NAME":"EARTH","REF_FRAME":"TEME","DECAY_DATE":null,"PERIOD":"91.532","BSTAR":"0.00003423800000","RA_OF_ASC_NODE":"256.1475","EPOCH":"2021-10-29T08:37:39.482400","CLASSIFICATION_TYPE":"U","ELEMENT_SET_NO":"999","SEMIMAJOR_AXIS":"6727.845","REV_AT_EPOCH":"9609","TLE_LINE1":"1 45231U 20012BF  21302.35948475  .00004188  00000-0  34238-4 0  9998","COUNTRY_CODE":"US","ARG_OF_PERICENTER":"356.3273","MEAN_MOTION_DOT":"0.00004188","TLE_LINE2":"2 45231  53.0310 256.1475 0005239 356.3273   3.7705 15.73217442 96099","SITE":"AFETR","EPHEMERIS_TYPE":"0"},{"OBJECT_ID":"2020-012BG","LAUNCH_DATE":"2020-02-17","MEAN_ANOMALY":"281.6036","MEAN_MOTION":"15.06398918","OBJECT_TYPE":"PAYLOAD","GP_ID":"188434066","PERIAPSIS":"546.360","OBJECT_NAME":"STARLINK-1235","ECCENTRICITY":"0.00012380","INCLINATION":"53.0548","APOAPSIS":"548.074","MEAN_MOTION_DDOT":"0.0000000000000","TIME_SYSTEM":"UTC","MEAN_ELEMENT_THEORY":"SGP4","FILE":"3191412","REF_FRAME":"TEME","NORAD_CAT_ID":"45232","CENTER_NAME":"EARTH","RCS_SIZE":"LARGE","BSTAR":"0.00005828400000","PERIOD":"95.592","DECAY_DATE":null,"EPOCH":"2021-10-29T09:08:39.665760","CLASSIFICATION_TYPE":"U","SEMIMAJOR_AXIS":"6925.352","ELEMENT_SET_NO":"999","REV_AT_EPOCH":"9540","RA_OF_ASC_NODE":"314.7670","SITE":"AFETR","EPHEMERIS_TYPE":"0","TLE_LINE2":"2 45232  53.0548 314.7670 0001238  78.5092 281.6036 15.06398918 95400","ARG_OF_PERICENTER":"78.5092","MEAN_MOTION_DOT":"0.00000587","TLE_LINE1":"1 45232U 20012BG  21302.38101465  .00000587  00000-0  58284-4 0  9998","COUNTRY_CODE":"US"}];
